OBJECT_NAME,OBJECT_ID,EPOCH,MEAN_MOTION,ECCENTRICITY,INCLINATION,RA_OF_ASC_NODE,ARG_OF_PERICENTER,MEAN_ANOMALY,EPHEMERIS_TYPE,CLASSIFICATION_TYPE,NORAD_CAT_ID,ELEMENT_SET_NO,REV_AT_EPOCH,BSTAR,MEAN_MOTION_DOT,MEAN_MOTION_DDOT
SL-16 R/B,1994-077B,2026-06-25T05:55:46.444512,14.15576532,.00033474,70.9825,126.2060,321.1088,38.9794,0,U,23405,999,63145,.13580427E-3,.218E-5,0
ARIANE 40+ R/B,1995-021B,2026-06-25T10:52:36.709824,14.39837574,.00069807,98.4408,246.4086,168.9171,201.7207,0,U,23561,999,63475,.89850788E-4,.239E-5,0
SL-16 R/B,1995-058B,2026-06-25T13:00:19.184544,14.15512046,.00142852,71.0229,313.8165,308.9226,51.0622,0,U,23705,999,58311,.12936175E-4,-.22E-6,0
SL-16 R/B,1996-051B,2026-06-25T12:42:46.594944,14.12448756,.00161768,70.7649,306.9926,324.7874,35.2175,0,U,24298,999,53687,.90214549E-4,.117E-5,0
ORBVIEW 2 (SEASTAR),1997-037A,2026-06-25T10:53:08.490336,14.35557231,.0003318,98.8694,343.7019,99.8755,260.2804,0,U,24883,999,52393,.99951975E-4,.241E-5,0
SL-16 R/B,1998-043G,2026-06-25T13:43:34.743360,14.26069880,.00108917,98.8367,130.8035,64.6422,295.5884,0,U,25400,999,45436,.34187977E-4,.36E-6,0
SL-16 R/B,1998-045B,2026-06-25T13:41:35.019744,14.16203151,.00089964,71.0119,314.6981,230.7409,129.2917,0,U,25407,999,44237,.11894385E-3,.188E-5,0
ISS (ZARYA),1998-067A,2026-06-25T12:14:30.025536,15.49422389,.00043691,51.6326,258.8948,230.1925,129.8680,0,U,25544,999,57304,.18376191E-3,.9838E-4,0
CZ-4B R/B,1999-025C,2026-06-25T13:18:22.150656,14.18284741,.00377457,98.6480,218.1823,36.1125,133.2034,0,U,25732,999,40345,.43564803E-4,.48E-6,0
OKEAN-O,1999-039A,2026-06-25T02:52:54.449760,14.80476021,.00013985,97.9312,234.8268,70.2079,289.9284,0,U,25860,999,45028,.80471202E-4,.564E-5,0
SL-16 R/B,1999-039B,2026-06-25T09:42:34.955136,14.81852369,.00133868,97.9834,235.2441,267.5181,92.4499,0,U,25861,999,45281,.64244163E-4,.454E-5,0
DELTA 2 R/B,1999-041E,2026-06-25T12:39:45.761472,14.12028353,.05009498,51.7634,230.4786,306.6703,48.9164,0,U,25876,999,37826,.17155319E-3,.83E-5,0
HELIOS 1B,1999-064A,2026-06-25T10:47:35.161728,14.88026840,.00025082,98.1609,81.8284,80.1126,280.0372,0,U,25977,999,70128,.15085894E-3,.1327E-4,0
TERRA,1999-068A,2026-06-25T14:19:06.875904,14.61109245,.00022457,97.9452,225.8094,164.8951,355.0735,0,U,25994,999,41083,.83542341E-4,.366E-5,0
SL-16 R/B,2000-006B,2026-06-25T13:02:19.427424,14.15837651,.0016054,71.0014,231.0554,9.9838,350.1600,0,U,26070,999,36382,.18058421E-3,.308E-5,0
TITAN 4B R/B,2000-047B,2026-06-25T12:54:09.801216,15.10241148,.00459239,67.9888,97.0681,278.5600,81.0347,0,U,26474,999,40919,.18875754E-3,.3032E-4,0
ENVISAT,2002-009A,2026-06-25T14:44:51.746784,14.39066582,.00014149,98.3837,127.7451,87.7347,86.0585,0,U,27386,999,27469,.37121306E-4,.72E-6,0
IDEFIX & ARIANE 42P R/B,2002-021B,2026-06-25T10:47:34.459296,14.31085521,.0010778,98.5942,113.8433,226.9108,133.1173,0,U,27422,999,25943,.84080372E-4,.178E-5,0
AQUA,2002-022A,2026-06-25T13:11:59.481600,14.62169698,.00008135,98.4280,146.0000,63.3681,51.6160,0,U,27424,999,28449,.15452204E-3,.728E-5,0
CZ-4B R/B,2002-024C,2026-06-25T14:33:17.585856,14.14565496,.00512004,98.8696,229.3719,76.8308,84.4331,0,U,27432,999,24449,.32838762E-4,.2E-6,0
MIDORI II (ADEOS-II),2002-056A,2026-06-25T11:14:16.170144,14.29353683,.00021184,98.7881,135.7986,66.6367,293.5037,0,U,27597,999,22569,.10599691E-3,.225E-5,0
H-2A R/B,2002-056E,2026-06-25T11:10:30.496800,14.33825348,.00696198,98.3315,132.8385,199.5829,272.9335,0,U,27601,999,22955,.77960819E-4,.181E-5,0
CZ-4B R/B,2003-049C,2026-06-25T13:14:21.934464,14.55105154,.0046885,98.6898,175.7312,262.4050,97.1819,0,U,28059,999,20228,.76225223E-4,.282E-5,0
CZ-2C R/B,2004-012C,2026-06-25T10:59:58.463520,15.80545035,.00103761,97.7083,253.0926,252.0837,107.9299,0,U,28222,999,22120,.64948768E-3,.124947E-2,0
SL-16 R/B,2004-021B,2026-06-25T13:49:28.660224,14.14607144,.00069073,71.0005,6.0829,243.8640,116.1772,0,U,28353,999,13809,.55280898E-4,.59E-6,0
CZ-4B R/B,2004-035C,2026-06-25T13:34:34.944672,15.30736401,.00291293,97.3367,209.5448,306.8166,53.0403,0,U,28415,999,19640,.30392079E-3,.9069E-4,0
CZ-2C R/B,2004-046B,2026-06-25T11:10:04.251936,14.27028181,.01389392,98.1939,84.7287,195.6604,164.0259,0,U,28480,999,12387,.41830683E-4,.72E-6,0
ARIANE 5 R/B,2004-049H,2026-06-25T11:35:17.763072,14.85458241,.00838893,98.2726,349.0562,2.6617,357.5026,0,U,28499,999,16179,.65749757E-4,.538E-5,0
CZ-2D R/B,2005-024B,2026-06-25T13:39:20.952000,15.70440091,.00017072,97.3479,196.4203,31.9489,328.1876,0,U,28738,999,15665,.56611689E-3,.69507E-3,0
ALOS (DAICHI),2006-002A,2026-06-25T11:06:05.493312,14.70065280,.0001154,98.1327,132.0042,59.3163,300.8156,0,U,28931,999,8931,.17282269E-3,.988E-5,0
