SL-16 R/B               
1 23405U 94077B   26176.24706533  .00000218  00000+0  13580-3 0  9993
2 23405  70.9825 126.2060 0003347 321.1088  38.9794 14.15576532631452
ARIANE 40+ R/B          
1 23561U 95021B   26176.45320266  .00000239  00000+0  89851-4 0  9992
2 23561  98.4408 246.4086 0006980 168.9171 201.7207 14.39837574634753
SL-16 R/B               
1 23705U 95058B   26176.54188871 -.00000022  00000+0  12936-4 0  9997
2 23705  71.0229 313.8165 0014285 308.9226  51.0622 14.15512046583110
SL-16 R/B               
1 24298U 96051B   26176.52970596  .00000117  00000+0  90215-4 0  9990
2 24298  70.7649 306.9926 0016176 324.7874  35.2175 14.12448756536875
ORBVIEW 2 (SEASTAR)     
1 24883U 97037A   26176.45357049  .00000241  00000+0  99952-4 0  9994
2 24883  98.8694 343.7019 0003318  99.8755 260.2804 14.35557231523936
SL-16 R/B               
1 25400U 98043G   26176.57192990  .00000036  00000+0  34188-4 0  9995
2 25400  98.8367 130.8035 0010891  64.6422 295.5884 14.26069880454364
SL-16 R/B               
1 25407U 98045B   26176.57054421  .00000188  00000+0  11894-3 0  9996
2 25407  71.0119 314.6981 0008996 230.7409 129.2917 14.16203151442373
ISS (ZARYA)             
1 25544U 98067A   26176.51006974  .00009838  00000+0  18376-3 0  9999
2 25544  51.6326 258.8948 0004369 230.1925 129.8680 15.49422389573043
CZ-4B R/B               
1 25732U 99025C   26176.55442304  .00000048  00000+0  43565-4 0  9991
2 25732  98.6480 218.1823 0037745  36.1125 133.2034 14.18284741403457
OKEAN-O                 
1 25860U 99039A   26176.12007465  .00000564  00000+0  80471-4 0  9996
2 25860  97.9312 234.8268 0001398  70.2079 289.9284 14.80476021450287
SL-16 R/B               
1 25861U 99039B   26176.40457124  .00000454  00000+0  64244-4 0  9997
2 25861  97.9834 235.2441 0013386 267.5181  92.4499 14.81852369452810
DELTA 2 R/B             
1 25876U 99041E   26176.52761298  .00000830  00000+0  17155-3 0  9995
2 25876  51.7634 230.4786 0500949 306.6703  48.9164 14.12028353378265
HELIOS 1B               
1 25977U 99064A   26176.44971252  .00001327  00000+0  15086-3 0  9999
2 25977  98.1609  81.8284 0002508  80.1126 280.0372 14.88026840701280
TERRA                   
1 25994U 99068A   26176.59660736  .00000366  00000+0  83542-4 0  9995
2 25994  97.9452 225.8094 0002245 164.8951 355.0735 14.61109245410831
SL-16 R/B               
1 26070U 00006B   26176.54328041  .00000308  00000+0  18058-3 0  9995
2 26070  71.0014 231.0554 0016054   9.9838 350.1600 14.15837651363821
TITAN 4B R/B            
1 26474U 00047B   26176.53761344  .00003032  00000+0  18876-3 0  9999
2 26474  67.9888  97.0681 0045923 278.5600  81.0347 15.10241148409196
ENVISAT                 
1 27386U 02009A   26176.61448781  .00000072  00000+0  37121-4 0  9994
2 27386  98.3837 127.7451 0001414  87.7347  86.0585 14.39066582274693
IDEFIX & ARIANE 42P R/B 
1 27422U 02021B   26176.44970439  .00000178  00000+0  84080-4 0  9993
2 27422  98.5942 113.8433 0010778 226.9108 133.1173 14.31085521259432
AQUA                    
1 27424U 02022A   26176.54999400  .00000728  00000+0  15452-3 0  9993
2 27424  98.4280 146.0000 0000813  63.3681  51.6160 14.62169698284490
CZ-4B R/B               
1 27432U 02024C   26176.60645354  .00000020  00000+0  32839-4 0  9991
2 27432  98.8696 229.3719 0051200  76.8308  84.4331 14.14565496244490
MIDORI II (ADEOS-II)    
1 27597U 02056A   26176.46824271  .00000225  00000+0  10600-3 0  9997
2 27597  98.7881 135.7986 0002118  66.6367 293.5037 14.29353683225695
H-2A R/B                
1 27601U 02056E   26176.46563075  .00000181  00000+0  77961-4 0  9990
2 27601  98.3315 132.8385 0069619 199.5829 272.9335 14.33825348229556
CZ-4B R/B               
1 28059U 03049C   26176.55164276  .00000282  00000+0  76225-4 0  9995
2 28059  98.6898 175.7312 0046885 262.4050  97.1819 14.55105154202280
CZ-2C R/B               
1 28222U 04012C   26176.45831555  .00124947  00000+0  64949-3 0  9992
2 28222  97.7083 253.0926 0010376 252.0837 107.9299 15.80545035221203
SL-16 R/B               
1 28353U 04021B   26176.57602616  .00000059  00000+0  55281-4 0  9991
2 28353  71.0005   6.0829 0006907 243.8640 116.1772 14.14607144138098
CZ-4B R/B               
1 28415U 04035C   26176.56568223  .00009069  00000+0  30392-3 0  9994
2 28415  97.3367 209.5448 0029129 306.8166  53.0403 15.30736401196407
CZ-2C R/B               
1 28480U 04046B   26176.46532699  .00000072  00000+0  41831-4 0  9991
2 28480  98.1939  84.7287 0138939 195.6604 164.0259 14.27028181123875
ARIANE 5 R/B            
1 28499U 04049H   26176.48284448  .00000538  00000+0  65750-4 0  9995
2 28499  98.2726 349.0562 0083889   2.6617 357.5026 14.85458241161799
CZ-2D R/B               
1 28738U 05024B   26176.56899250  .00069507  00000+0  56612-3 0  9994
2 28738  97.3479 196.4203 0001707  31.9489 328.1876 15.70440091156652
ALOS (DAICHI)           
1 28931U 06002A   26176.46256358  .00000988  00000+0  17282-3 0  9999
2 28931  98.1327 132.0042 0001154  59.3163 300.8156 14.70065280 89312
